STARLINK-4509           
1 53404U 22097S   26068.51553569  .00000053  00000+0  21424-4 0  9991
2 53404  53.2165 114.8358 0001282  92.2882 267.8257 15.08841410198629
2023-069B               
1 56732U 23069B   26068.54706144  .00006772  00000+0  42420-3 0  9992
2 56732  41.0081 274.4606 0011652 279.7432  80.2064 15.09579619155167
